ONEWEB-0620             
1 55161U 23004X   25187.20866943  .00000211  00000+0  56060-3 0  9991
2 55161  87.8834  90.0572 0001776  75.1764 284.9560 13.11412289120483
ONEWEB-0621             
1 55162U 23004Y   25186.77800769 -.00000037  00000+0 -14061-3 0  9990
2 55162  87.8834  90.0996 0001658  80.4662 279.6653 13.11418840120404
ONEWEB-0622             
1 55163U 23004Z   25186.70678947  .00000263  00000+0  70597-3 0  9990
2 55163  87.8835  90.1371 0001497  54.0881 306.0386 13.11419520120386
ONEWEB-0623             
1 55164U 23004AA  25187.20483075  .00000020  00000+0  18645-4 0  9991
2 55164  87.9056  74.7704 0001153  69.9981 290.1275 13.17648413122020
ONEWEB-0624             
1 55165U 23004AB  25187.05296372 -.00000282  00000+0 -81209-3 0  9994
2 55165  87.8873  59.4902 0001726  81.0497 279.0827 13.12941293122655
ONEWEB-0625             
1 55166U 23004AC  25186.73909323  .00000036  00000+0  59907-4 0  9992
2 55166  87.9057  74.8610 0001974  84.6878 275.4478 13.17649136121955
ONEWEB-0626             
1 55167U 23004AD  25186.72897068 -.00000031  00000+0 -11340-3 0  9999
2 55167  87.9062  74.8609 0002339  71.1802 288.9583 13.17647766121957
ONEWEB-0627             
1 55168U 23004AE  25186.71715438  .00000002  00000+0 -27969-4 0  9991
2 55168  87.9058  74.8660 0001374  66.1339 293.9937 13.17649813121951
